[Satellite]
VERSION=1.1
NAME=CALSPHERE 4(A)
NICKNAME=CALSPHERE 4(A)
TLE1=1 01520U 65065H   17186.30921132  .00000016  00000-0  15603-4 0  9990
TLE2=2 01520  90.0840 122.8750 0068466 324.0745 189.6981 13.35736685526261
